CBERS 4                 
1 40336U 14079A   20356.47945580  .00000006  00000-0  17351-4 0  9992
2 40336  98.5441  66.5268 0000576  90.7322 269.3932 14.35421671316517
CZ-4B R/B               
1 40337U 14079B   20355.98503863  .00000362  00000-0  34516-4 0  9999
2 40337  98.4403 254.3391 0177554  63.3502 298.5776 14.89495923328160
